{
  "type": "FeatureCollection",
  "features": [
    {
      "type": "Feature",
      "properties": {
        "norad_id": 35202,
        "name": "FENGYUN 1C DEB",
        "group": "fengyun-1c-debris",
        "lat": -10.302314411346268,
        "lon": 29.739114296658475,
        "alt_km": 882.4631169916229,
        "timestamp": "2025-12-08T19:31:49.095801+00:00",
        "meta_object_name": "FENGYUN 1C DEB",
        "meta_object_id": "1999-025DPJ",
        "meta_epoch": "2025-12-07T02:12:12.627648",
        "meta_mean_motion": 13.34737824,
        "meta_eccentricity": 0.03742331,
        "meta_inclination": 100.0915,
        "meta_ra_of_asc_node": 26.1822,
        "meta_arg_of_pericenter": 21.7012,
        "meta_mean_anomaly": 339.9513,
        "meta_ephemeris_type": 0,
        "meta_classification_type": "U",
        "meta_norad_cat_id": 35202,
        "meta_element_set_no": 999,
        "meta_rev_at_epoch": 56901,
        "meta_bstar": 0.00090072677,
        "meta_mean_motion_dot": 6.28e-06,
        "meta_mean_motion_ddot": 0,
        "tle_line1": "1 35202U 99025DPJ 25341.09181282  .00000628  00000+0  90073-3 0  9990",
        "tle_line2": "2 35202 100.0915  26.1822 0374233  21.7012 339.9513 13.34737824569012"
      },
      "geometry": {
        "type": "Point",
        "coordinates": [
          29.739114296658475,
          -10.302314411346268
        ]
      }
    },
    {
      "type": "Feature",
      "properties": {
        "norad_id": 35203,
        "name": "FENGYUN 1C DEB",
        "group": "fengyun-1c-debris",
        "lat": -15.283851742735163,
        "lon": 125.79667769636879,
        "alt_km": 818.988333373869,
        "timestamp": "2025-12-08T19:31:49.095810+00:00",
        "meta_object_name": "FENGYUN 1C DEB",
        "meta_object_id": "1999-025DPK",
        "meta_epoch": "2025-12-07T04:33:02.628864",
        "meta_mean_motion": 13.26403425,
        "meta_eccentricity": 0.05114724,
        "meta_inclination": 102.0739,
        "meta_ra_of_asc_node": 307.2564,
        "meta_arg_of_pericenter": 171.4627,
        "meta_mean_anomaly": 189.5609,
        "meta_ephemeris_type": 0,
        "meta_classification_type": "U",
        "meta_norad_cat_id": 35203,
        "meta_element_set_no": 999,
        "meta_rev_at_epoch": 59577,
        "meta_bstar": 0.0024343196,
        "meta_mean_motion_dot": 2.135e-05,
        "meta_mean_motion_ddot": 0,
        "tle_line1": "1 35203U 99025DPK 25341.18961376  .00002135  00000+0  24343-2 0  9992",
        "tle_line2": "2 35203 102.0739 307.2564 0511472 171.4627 189.5609 13.26403425595773"
      },
      "geometry": {
        "type": "Point",
        "coordinates": [
          125.79667769636879,
          -15.283851742735163
        ]
      }
    },
    {
      "type": "Feature",
      "properties": {
        "norad_id": 35204,
        "name": "FENGYUN 1C DEB",
        "group": "fengyun-1c-debris",
        "lat": 29.879215929375597,
        "lon": -3.6806924535412686,
        "alt_km": 756.3051314806235,
        "timestamp": "2025-12-08T19:31:49.095820+00:00",
        "meta_object_name": "FENGYUN 1C DEB",
        "meta_object_id": "1999-025DPL",
        "meta_epoch": "2025-12-07T00:26:13.057152",
        "meta_mean_motion": 14.48638625,
        "meta_eccentricity": 0.00394716,
        "meta_inclination": 99.0066,
        "meta_ra_of_asc_node": 169.1771,
        "meta_arg_of_pericenter": 340.6655,
        "meta_mean_anomaly": 170.1147,
        "meta_ephemeris_type": 0,
        "meta_classification_type": "U",
        "meta_norad_cat_id": 35204,
        "meta_element_set_no": 999,
        "meta_rev_at_epoch": 90847,
        "meta_bstar": 0.0035003707,
        "meta_mean_motion_dot": 0.00013278,
        "meta_mean_motion_ddot": 0,
        "tle_line1": "1 35204U 99025DPL 25341.01820668  .00013278  00000+0  35004-2 0  9999",
        "tle_line2": "2 35204  99.0066 169.1771 0039471 340.6655 170.1147 14.48638625908477"
      },
      "geometry": {
        "type": "Point",
        "coordinates": [
          -3.6806924535412686,
          29.879215929375597
        ]
      }
    },
    {
      "type": "Feature",
      "properties": {
        "norad_id": 35207,
        "name": "FENGYUN 1C DEB",
        "group": "fengyun-1c-debris",
        "lat": -29.95041835956079,
        "lon": 86.03927558197663,
        "alt_km": 696.0988993991177,
        "timestamp": "2025-12-08T19:31:49.095847+00:00",
        "meta_object_name": "FENGYUN 1C DEB",
        "meta_object_id": "1999-025DPP",
        "meta_epoch": "2025-12-07T12:19:03.019296",
        "meta_mean_motion": 14.55301427,
        "meta_eccentricity": 0.00548039,
        "meta_inclination": 98.6918,
        "meta_ra_of_asc_node": 79.6299,
        "meta_arg_of_pericenter": 271.2245,
        "meta_mean_anomaly": 88.2673,
        "meta_ephemeris_type": 0,
        "meta_classification_type": "U",
        "meta_norad_cat_id": 35207,
        "meta_element_set_no": 999,
        "meta_rev_at_epoch": 64828,
        "meta_bstar": 0.0033629217,
        "meta_mean_motion_dot": 0.0001485,
        "meta_mean_motion_ddot": 0,
        "tle_line1": "1 35207U 99025DPP 25341.51322939  .00014850  00000+0  33629-2 0  9993",
        "tle_line2": "2 35207  98.6918  79.6299 0054803 271.2245  88.2673 14.55301427648289"
      },
      "geometry": {
        "type": "Point",
        "coordinates": [
          86.03927558197663,
          -29.95041835956079
        ]
      }
    },
    {
      "type": "Feature",
      "properties": {
        "norad_id": 35208,
        "name": "FENGYUN 1C DEB",
        "group": "fengyun-1c-debris",
        "lat": 22.833051994898074,
        "lon": -1.6644501187021965,
        "alt_km": 954.020625862293,
        "timestamp": "2025-12-08T19:31:49.095856+00:00",
        "meta_object_name": "FENGYUN 1C DEB",
        "meta_object_id": "1999-025DPQ",
        "meta_epoch": "2025-12-08T07:24:29.871648",
        "meta_mean_motion": 13.99639051,
        "meta_eccentricity": 0.01010844,
        "meta_inclination": 98.903,
        "meta_ra_of_asc_node": 1.6284,
        "meta_arg_of_pericenter": 168.9282,
        "meta_mean_anomaly": 191.414,
        "meta_ephemeris_type": 0,
        "meta_classification_type": "U",
        "meta_norad_cat_id": 35208,
        "meta_element_set_no": 999,
        "meta_rev_at_epoch": 90501,
        "meta_bstar": 0.0013760881,
        "meta_mean_motion_dot": 2.06e-05,
        "meta_mean_motion_ddot": 0,
        "tle_line1": "1 35208U 99025DPQ 25342.30867907  .00002060  00000+0  13761-2 0  9996",
        "tle_line2": "2 35208  98.9030   1.6284 0101084 168.9282 191.4140 13.99639051905011"
      },
      "geometry": {
        "type": "Point",
        "coordinates": [
          -1.6644501187021965,
          22.833051994898074
        ]
      }
    },
    {
      "type": "Feature",
      "properties": {
        "norad_id": 35210,
        "name": "FENGYUN 1C DEB",
        "group": "fengyun-1c-debris",
        "lat": -23.227716701536377,
        "lon": 162.46616677378054,
        "alt_km": 761.2224021113925,
        "timestamp": "2025-12-08T19:31:49.095865+00:00",
        "meta_object_name": "FENGYUN 1C DEB",
        "meta_object_id": "1999-025DPS",
        "meta_epoch": "2025-12-05T23:50:18.341376",
        "meta_mean_motion": 14.33492757,
        "meta_eccentricity": 0.00493395,
        "meta_inclination": 99.0965,
        "meta_ra_of_asc_node": 343.4463,
        "meta_arg_of_pericenter": 258.927,
        "meta_mean_anomaly": 157.4301,
        "meta_ephemeris_type": 0,
        "meta_classification_type": "U",
        "meta_norad_cat_id": 35210,
        "meta_element_set_no": 999,
        "meta_rev_at_epoch": 90026,
        "meta_bstar": 0.004026418,
        "meta_mean_motion_dot": 0.0001125,
        "meta_mean_motion_ddot": 0,
        "tle_line1": "1 35210U 99025DPS 25339.99326784  .00011250  00000+0  40264-2 0  9992",
        "tle_line2": "2 35210  99.0965 343.4463 0049339 258.9270 157.4301 14.33492757900262"
      },
      "geometry": {
        "type": "Point",
        "coordinates": [
          162.46616677378054,
          -23.227716701536377
        ]
      }
    },
    {
      "type": "Feature",
      "properties": {
        "norad_id": 35217,
        "name": "FENGYUN 1C DEB",
        "group": "fengyun-1c-debris",
        "lat": 66.27777357899028,
        "lon": -131.45026022681958,
        "alt_km": 1160.1439660560773,
        "timestamp": "2025-12-08T19:31:49.095874+00:00",
        "meta_object_name": "FENGYUN 1C DEB",
        "meta_object_id": "1999-025DPZ",
        "meta_epoch": "2025-12-05T23:58:33.093696",
        "meta_mean_motion": 13.57450047,
        "meta_eccentricity": 0.03033796,
        "meta_inclination": 101.8756,
        "meta_ra_of_asc_node": 253.7635,
        "meta_arg_of_pericenter": 311.644,
        "meta_mean_anomaly": 45.907,
        "meta_ephemeris_type": 0,
        "meta_classification_type": "U",
        "meta_norad_cat_id": 35217,
        "meta_element_set_no": 999,
        "meta_rev_at_epoch": 61128,
        "meta_bstar": 0.0049764515,
        "meta_mean_motion_dot": 4.747e-05,
        "meta_mean_motion_ddot": 0,
        "tle_line1": "1 35217U 99025DPZ 25339.99899414  .00004747  00000+0  49765-2 0  9992",
        "tle_line2": "2 35217 101.8756 253.7635 0303379 311.6440  45.9070 13.57450047611282"
      },
      "geometry": {
        "type": "Point",
        "coordinates": [
          -131.45026022681958,
          66.27777357899028
        ]
      }
    }
  ]
}